[{"OBJECT_NAME":"COSMOS 2251 DEB","OBJECT_ID":"1993-036BQA","EPOCH":"2026-02-08T04:34:20.118432","MEAN_MOTION":14.79329439,"ECCENTRICITY":0.00859513,"INCLINATION":73.9998,"RA_OF_ASC_NODE":211.0646,"ARG_OF_PERICENTER":187.26,"MEAN_ANOMALY":172.734,"EPHEMERIS_TYPE":0,"CLASSIFICATION_TYPE":"U","NORAD_CAT_ID":37975,"ELEMENT_SET_NO":999,"REV_AT_EPOCH":70594,"BSTAR":0.0042950145,"MEAN_MOTION_DOT":0.00034176,"MEAN_MOTION_DDOT":0},{"OBJECT_NAME":"COSMOS 2251 DEB","OBJECT_ID":"1993-036BQL","EPOCH":"2026-03-02T11:47:43.019232","MEAN_MOTION":14.35511115,"ECCENTRICITY":0.00223466,"INCLINATION":74.0243,"RA_OF_ASC_NODE":119.3586,"ARG_OF_PERICENTER":227.9067,"MEAN_ANOMALY":132.0186,"EPHEMERIS_TYPE":0,"CLASSIFICATION_TYPE":"U","NORAD_CAT_ID":37985,"ELEMENT_SET_NO":999,"REV_AT_EPOCH":66061,"BSTAR":5.6909175e-5,"MEAN_MOTION_DOT":1.38e-6,"MEAN_MOTION_DDOT":0},{"OBJECT_NAME":"COSMOS 2251 DEB","OBJECT_ID":"1993-036BQP","EPOCH":"2026-03-04T20:51:00.803520","MEAN_MOTION":14.70067635,"ECCENTRICITY":0.00639583,"INCLINATION":74.0603,"RA_OF_ASC_NODE":225.1528,"ARG_OF_PERICENTER":243.1646,"MEAN_ANOMALY":116.2977,"EPHEMERIS_TYPE":0,"CLASSIFICATION_TYPE":"U","NORAD_CAT_ID":37988,"ELEMENT_SET_NO":999,"REV_AT_EPOCH":24602,"BSTAR":0.00145276,"MEAN_MOTION_DOT":8.984e-5,"MEAN_MOTION_DDOT":0},{"OBJECT_NAME":"COSMOS 2251 DEB","OBJECT_ID":"1993-036BQU","EPOCH":"2026-03-03T05:20:10.254624","MEAN_MOTION":14.61086862,"ECCENTRICITY":0.001832,"INCLINATION":74.0242,"RA_OF_ASC_NODE":13.0752,"ARG_OF_PERICENTER":83.7755,"MEAN_ANOMALY":276.5497,"EPHEMERIS_TYPE":0,"CLASSIFICATION_TYPE":"U","NORAD_CAT_ID":37993,"ELEMENT_SET_NO":999,"REV_AT_EPOCH":66492,"BSTAR":0.001719464,"MEAN_MOTION_DOT":8.451e-5,"MEAN_MOTION_DDOT":0},{"OBJECT_NAME":"COSMOS 2251 DEB","OBJECT_ID":"1993-036BQV","EPOCH":"2026-03-05T04:50:08.195136","MEAN_MOTION":14.39829877,"ECCENTRICITY":0.00231389,"INCLINATION":74.0352,"RA_OF_ASC_NODE":123.3945,"ARG_OF_PERICENTER":191.0684,"MEAN_ANOMALY":168.9966,"EPHEMERIS_TYPE":0,"CLASSIFICATION_TYPE":"U","NORAD_CAT_ID":37994,"ELEMENT_SET_NO":999,"REV_AT_EPOCH":78251,"BSTAR":0.00035412464,"MEAN_MOTION_DOT":1.089e-5,"MEAN_MOTION_DDOT":0},{"OBJECT_NAME":"COSMOS 2251 DEB","OBJECT_ID":"1993-036BQZ","EPOCH":"2026-02-26T19:01:10.994304","MEAN_MOTION":14.45833059,"ECCENTRICITY":0.00181763,"INCLINATION":74.0356,"RA_OF_ASC_NODE":93.2931,"ARG_OF_PERICENTER":160.0603,"MEAN_ANOMALY":200.127,"EPHEMERIS_TYPE":0,"CLASSIFICATION_TYPE":"U","NORAD_CAT_ID":37998,"ELEMENT_SET_NO":999,"REV_AT_EPOCH":65386,"BSTAR":0.00043152938,"MEAN_MOTION_DOT":1.509e-5,"MEAN_MOTION_DDOT":0},{"OBJECT_NAME":"COSMOS 2251 DEB","OBJECT_ID":"1993-036BRC","EPOCH":"2026-03-04T04:23:22.974720","MEAN_MOTION":14.80120442,"ECCENTRICITY":0.00620751,"INCLINATION":74.0029,"RA_OF_ASC_NODE":331.6439,"ARG_OF_PERICENTER":101.9201,"MEAN_ANOMALY":47.9422,"EPHEMERIS_TYPE":0,"CLASSIFICATION_TYPE":"U","NORAD_CAT_ID":38001,"ELEMENT_SET_NO":999,"REV_AT_EPOCH":75912,"BSTAR":0.00099800351,"MEAN_MOTION_DOT":7.798e-5,"MEAN_MOTION_DDOT":0},{"OBJECT_NAME":"COSMOS 2251 DEB","OBJECT_ID":"1993-036BRL","EPOCH":"2026-03-04T08:18:50.129856","MEAN_MOTION":13.62932162,"ECCENTRICITY":0.03483816,"INCLINATION":73.952,"RA_OF_ASC_NODE":132.2214,"ARG_OF_PERICENTER":94.2496,"MEAN_ANOMALY":23.8515,"EPHEMERIS_TYPE":0,"CLASSIFICATION_TYPE":"U","NORAD_CAT_ID":38054,"ELEMENT_SET_NO":999,"REV_AT_EPOCH":68291,"BSTAR":0.002319045,"MEAN_MOTION_DOT":2.711e-5,"MEAN_MOTION_DDOT":0},{"OBJECT_NAME":"COSMOS 2251 DEB","OBJECT_ID":"1993-036BRM","EPOCH":"2026-03-03T22:56:12.777216","MEAN_MOTION":14.78145669,"ECCENTRICITY":0.006394,"INCLINATION":74.0076,"RA_OF_ASC_NODE":47.1144,"ARG_OF_PERICENTER":157.671,"MEAN_ANOMALY":233.7503,"EPHEMERIS_TYPE":0,"CLASSIFICATION_TYPE":"U","NORAD_CAT_ID":38055,"ELEMENT_SET_NO":999,"REV_AT_EPOCH":61882,"BSTAR":0.0010696,"MEAN_MOTION_DOT":7.988e-5,"MEAN_MOTION_DDOT":0},{"OBJECT_NAME":"COSMOS 2251 DEB","OBJECT_ID":"1993-036BRS","EPOCH":"2026-03-02T04:39:03.704832","MEAN_MOTION":14.64353057,"ECCENTRICITY":0.00599606,"INCLINATION":74.0431,"RA_OF_ASC_NODE":142.7485,"ARG_OF_PERICENTER":231.1694,"MEAN_ANOMALY":128.4114,"EPHEMERIS_TYPE":0,"CLASSIFICATION_TYPE":"U","NORAD_CAT_ID":38060,"ELEMENT_SET_NO":999,"REV_AT_EPOCH":73127,"BSTAR":0.00050932588,"MEAN_MOTION_DOT":2.73e-5,"MEAN_MOTION_DDOT":0},{"OBJECT_NAME":"COSMOS 2251 DEB","OBJECT_ID":"1993-036BRU","EPOCH":"2026-02-21T14:09:45.153216","MEAN_MOTION":14.99001579,"ECCENTRICITY":0.0017259,"INCLINATION":74.0061,"RA_OF_ASC_NODE":146.9269,"ARG_OF_PERICENTER":277.3195,"MEAN_ANOMALY":147.2685,"EPHEMERIS_TYPE":0,"CLASSIFICATION_TYPE":"U","NORAD_CAT_ID":38062,"ELEMENT_SET_NO":999,"REV_AT_EPOCH":64090,"BSTAR":0.0019091,"MEAN_MOTION_DOT":0.00023247,"MEAN_MOTION_DDOT":0},{"OBJECT_NAME":"COSMOS 2251 DEB","OBJECT_ID":"1993-036BRW","EPOCH":"2026-03-05T03:53:28.438944","MEAN_MOTION":14.57002777,"ECCENTRICITY":0.00449529,"INCLINATION":74.0244,"RA_OF_ASC_NODE":327.5606,"ARG_OF_PERICENTER":66.3025,"MEAN_ANOMALY":294.2846,"EPHEMERIS_TYPE":0,"CLASSIFICATION_TYPE":"U","NORAD_CAT_ID":38064,"ELEMENT_SET_NO":999,"REV_AT_EPOCH":73065,"BSTAR":0.00093820568,"MEAN_MOTION_DOT":4.25e-5,"MEAN_MOTION_DDOT":0},{"OBJECT_NAME":"COSMOS 2251 DEB","OBJECT_ID":"1993-036BRZ","EPOCH":"2026-02-10T01:48:05.074272","MEAN_MOTION":14.61370955,"ECCENTRICITY":0.0071947,"INCLINATION":74.0173,"RA_OF_ASC_NODE":160.9148,"ARG_OF_PERICENTER":294.1713,"MEAN_ANOMALY":243.7451,"EPHEMERIS_TYPE":0,"CLASSIFICATION_TYPE":"U","NORAD_CAT_ID":38067,"ELEMENT_SET_NO":999,"REV_AT_EPOCH":63422,"BSTAR":0.00037945,"MEAN_MOTION_DOT":1.914e-5,"MEAN_MOTION_DDOT":0},{"OBJECT_NAME":"COSMOS 2251 DEB","OBJECT_ID":"1993-036BSA","EPOCH":"2026-03-03T16:13:41.255616","MEAN_MOTION":14.36145559,"ECCENTRICITY":0.00269133,"INCLINATION":74.0223,"RA_OF_ASC_NODE":159.5074,"ARG_OF_PERICENTER":233.2947,"MEAN_ANOMALY":126.5734,"EPHEMERIS_TYPE":0,"CLASSIFICATION_TYPE":"U","NORAD_CAT_ID":38068,"ELEMENT_SET_NO":999,"REV_AT_EPOCH":67808,"BSTAR":0.00032931384,"MEAN_MOTION_DOT":9.37e-6,"MEAN_MOTION_DDOT":0},{"OBJECT_NAME":"COSMOS 2251 DEB","OBJECT_ID":"1993-036BSM","EPOCH":"2026-03-05T02:10:27.058944","MEAN_MOTION":14.77890483,"ECCENTRICITY":0.01150489,"INCLINATION":73.9361,"RA_OF_ASC_NODE":194.8722,"ARG_OF_PERICENTER":50.4266,"MEAN_ANOMALY":310.7001,"EPHEMERIS_TYPE":0,"CLASSIFICATION_TYPE":"U","NORAD_CAT_ID":38197,"ELEMENT_SET_NO":999,"REV_AT_EPOCH":86970,"BSTAR":0.0036398759,"MEAN_MOTION_DOT":0.00029348,"MEAN_MOTION_DDOT":0},{"OBJECT_NAME":"COSMOS 2251 DEB","OBJECT_ID":"1993-036BSP","EPOCH":"2026-03-04T22:27:01.710144","MEAN_MOTION":13.64941099,"ECCENTRICITY":0.03687997,"INCLINATION":73.9542,"RA_OF_ASC_NODE":287.1154,"ARG_OF_PERICENTER":197.6129,"MEAN_ANOMALY":161.1918,"EPHEMERIS_TYPE":0,"CLASSIFICATION_TYPE":"U","NORAD_CAT_ID":38199,"ELEMENT_SET_NO":999,"REV_AT_EPOCH":62143,"BSTAR":0.00050382954,"MEAN_MOTION_DOT":6.25e-6,"MEAN_MOTION_DDOT":0}]
