COSMOS 2251 DEB         
1 37975U 93036BQA 26039.19051063  .00034176  00000+0  42950-2 0  9999
2 37975  73.9998 211.0646 0085951 187.2600 172.7340 14.79329439705940
COSMOS 2251 DEB         
1 37985U 93036BQL 26061.49147013  .00000138  00000+0  56909-4 0  9991
2 37985  74.0243 119.3586 0022346 227.9067 132.0186 14.35511115660614
COSMOS 2251 DEB         
1 37988U 93036BQP 26063.86875930  .00008984  00000+0  14528-2 0  9999
2 37988  74.0603 225.1528 0063958 243.1646 116.2977 14.70067635246025
COSMOS 2251 DEB         
1 37993U 93036BQU 26062.22234091  .00008451  00000+0  17195-2 0  9993
2 37993  74.0242  13.0752 0018320  83.7755 276.5497 14.61086862664928
COSMOS 2251 DEB         
1 37994U 93036BQV 26064.20148374  .00001089  00000+0  35412-3 0  9995
2 37994  74.0352 123.3945 0023138 191.0684 168.9966 14.39829877782514
COSMOS 2251 DEB         
1 37998U 93036BQZ 26057.79248836  .00001509  00000+0  43153-3 0  9997
2 37998  74.0356  93.2931 0018176 160.0603 200.1270 14.45833059653861
COSMOS 2251 DEB         
1 38001U 93036BRC 26063.18290480  .00007798  00000+0  99800-3 0  9991
2 38001  74.0029 331.6439 0062075 101.9201  47.9422 14.80120442759127
COSMOS 2251 DEB         
1 38054U 93036BRL 26063.34641354  .00002711  00000+0  23190-2 0  9995
2 38054  73.9520 132.2214 0348381  94.2496  23.8515 13.62932162682919
COSMOS 2251 DEB         
1 38055U 93036BRM 26062.95570344  .00007988  00000+0  10696-2 0  9990
2 38055  74.0076  47.1144 0063940 157.6710 233.7503 14.78145669618826
COSMOS 2251 DEB         
1 38060U 93036BRS 26061.19379288  .00002730  00000+0  50933-3 0  9994
2 38060  74.0431 142.7485 0059960 231.1694 128.4114 14.64353057731273
COSMOS 2251 DEB         
1 38062U 93036BRU 26052.59010594  .00023247  00000+0  19091-2 0  9997
2 38062  74.0061 146.9269 0017259 277.3195 147.2685 14.99001579640901
COSMOS 2251 DEB         
1 38064U 93036BRW 26064.16213471  .00004250  00000+0  93821-3 0  9991
2 38064  74.0244 327.5606 0044952  66.3025 294.2846 14.57002777730655
COSMOS 2251 DEB         
1 38067U 93036BRZ 26041.07505873  .00001914  00000+0  37945-3 0  9998
2 38067  74.0173 160.9148 0071947 294.1713 243.7451 14.61370955634226
COSMOS 2251 DEB         
1 38068U 93036BSA 26062.67617194  .00000937  00000+0  32931-3 0  9992
2 38068  74.0223 159.5074 0026913 233.2947 126.5734 14.36145559678087
COSMOS 2251 DEB         
1 38197U 93036BSM 26064.09059096  .00029348  00000+0  36399-2 0  9992
2 38197  73.9361 194.8722 0115048  50.4266 310.7001 14.77890483869707
COSMOS 2251 DEB         
1 38199U 93036BSP 26063.93543646  .00000625  00000+0  50383-3 0  9992
2 38199  73.9542 287.1154 0368799 197.6129 161.1918 13.64941099621436
